ORBCOMM FM24 [-]        
1 25478U 98053D   24055.20473265  .00001741  00000+0  65122-3 0  9997
2 25478  45.0099  15.0459 0002746 325.1440  34.9227 14.35292984328565
ORBCOMM FM25 [-]        
1 25479U 98053E   24055.58769125  .00001962  00000+0  72771-3 0  9995
2 25479  45.0091  11.4778 0004783 352.2820   7.7952 14.35278840328915
ORBCOMM FM26 [-]        
1 25480U 98053F   24055.56622247  .00001768  00000+0  66704-3 0  9991
2 25480  45.0094   5.3932 0006251  16.9554 343.1501 14.34773474328856
ORBCOMM FM27 [+]        
1 25481U 98053G   24055.57476148  .00002043  00000+0  75621-3 0  9995
2 25481  45.0074  11.8020 0001412 304.7200  55.3514 14.35254649328883
ORBCOMM FM28 [-]        
1 25482U 98053H   24055.44584132  .00001548  00000+0  57947-3 0  9995
2 25482  45.0072 311.1402 0004320  48.9271 311.1949 14.35716353329496
ORBCOMM FM30 [-]        
1 25980U 99065A   24055.46592201  .00001695  00000+0  63975-3 0  9991
2 25980  45.0306 191.3209 0006486 142.4223 217.7079 14.34913105265637
ORBCOMM FM31 [-]        
1 25981U 99065B   24055.71032088  .00001894  00000+0  70910-3 0  9990
2 25981  45.0222 183.9187 0004143 172.7653 187.3255 14.34927952266193
ORBCOMM FM32 [+]        
1 25982U 99065C   24055.70701367  .00001705  00000+0  65625-3 0  9991
2 25982  45.0148 197.1876 0006501 166.7643 193.3375 14.33894597265999
